STARLINK-30863          
1 59027U 24038E   25337.05357990  .00002245  00000+0  91075-4 0  9996
2 59027  43.0025 213.2059 0001390 268.7410  91.3282 15.27581394 99864
STARLINK-31206          
1 59028U 24038F   25337.16434021 -.00002503  00000+0 -81522-4 0  9995
2 59028  43.0004 147.1418 0000325 258.4242 101.6574 15.27560656100761
STARLINK-31224          
1 59029U 24038G   25336.93808744  .00003776  00000+0  14672-3 0  9999
2 59029  43.0009 213.2127 0001109 257.4190 102.6538 15.27570664 99961
STARLINK-31186          
1 59030U 24038H   25337.03559620 -.00000719  00000+0 -16608-4 0  9997
2 59030  43.0007 213.0879 0001150 270.5655  89.5064 15.27579480 99974
STARLINK-31211          
1 59031U 24038J   25337.06371643  .00000294  00000+0  20189-4 0  9993
2 59031  43.0006 212.4361 0001318 260.1241  99.9462 15.27583152 99872
STARLINK-30862          
1 59032U 24038K   25337.04589155  .00005026  00000+0  19197-3 0  9995
2 59032  42.9999 201.9640 0001980 262.4305  97.6321 15.27591555 99994
STARLINK-31210          
1 59033U 24038L   25337.02451959  .00000128  00000+0  14152-4 0  9999
2 59033  43.0001 209.5593 0000838 279.6675  80.4082 15.27578783100077
STARLINK-31231          
1 59034U 24038M   25337.08604954  .00004941  00000+0  18895-3 0  9995
2 59034  43.0005 209.1603 0001095 276.2602  83.8125 15.27580960 99914
STARLINK-31207          
1 59035U 24038N   25337.34374038  .00004235  00000+0  16333-3 0  9993
2 59035  42.9995 207.6529 0001285 272.6882  87.3822 15.27579912100126
STARLINK-31217          
1 59036U 24038P   25336.41577950  .00000927  00000+0  43190-4 0  9995
2 59036  43.0018 118.5704 0001433 271.8172  88.2516 15.27589884101061
STARLINK-31208          
1 59037U 24038Q   25337.05130426  .00001976  00000+0  85376-4 0  9997
2 59037  42.9986 213.1784 0000567 294.2291  65.8500 15.25898823100036
STARLINK-31235          
1 59038U 24038R   25337.34116261 -.00000571  00000+0 -11233-4 0  9994
2 59038  42.9998 207.6318 0001301 274.3295  85.7408 15.27589157100061
STARLINK-31220          
1 59039U 24038S   25337.34325536 -.00000189  00000+0  26599-5 0  9998
2 59039  42.9990 211.0900 0000776 285.9331  74.1435 15.27579212100023
STARLINK-31225          
1 59040U 24038T   25337.00009788  .00005473  00000+0  20830-3 0  9991
2 59040  43.0006 209.3313 0001294 267.6284  92.4419 15.27574341 99900
STARLINK-31240          
1 59041U 24038U   25337.03864863  .00001407  00000+0  60657-4 0  9993
2 59041  43.0031 209.6660 0001355 262.5273  97.5425 15.27582127100016
STARLINK-31202          
1 59042U 24038V   25337.04235502  .00001377  00000+0  59583-4 0  9999
2 59042  43.0077 208.8402 0002855 274.6397  85.4128 15.27577510100082
