[{"OBJECT_NAME":"STARLINK-30863","OBJECT_ID":"2024-038E","EPOCH":"2025-12-03T01:17:09.303360","MEAN_MOTION":15.27581394,"ECCENTRICITY":0.00013901,"INCLINATION":43.0025,"RA_OF_ASC_NODE":213.2059,"ARG_OF_PERICENTER":268.741,"MEAN_ANOMALY":91.3282,"EPHEMERIS_TYPE":0,"CLASSIFICATION_TYPE":"U","NORAD_CAT_ID":59027,"ELEMENT_SET_NO":999,"REV_AT_EPOCH":9986,"BSTAR":9.1074809e-5,"MEAN_MOTION_DOT":2.245e-5,"MEAN_MOTION_DDOT":0},{"OBJECT_NAME":"STARLINK-31206","OBJECT_ID":"2024-038F","EPOCH":"2025-12-03T03:56:38.994144","MEAN_MOTION":15.27560656,"ECCENTRICITY":3.251e-5,"INCLINATION":43.0004,"RA_OF_ASC_NODE":147.1418,"ARG_OF_PERICENTER":258.4242,"MEAN_ANOMALY":101.6574,"EPHEMERIS_TYPE":0,"CLASSIFICATION_TYPE":"U","NORAD_CAT_ID":59028,"ELEMENT_SET_NO":999,"REV_AT_EPOCH":10076,"BSTAR":-8.1521708e-5,"MEAN_MOTION_DOT":-2.503e-5,"MEAN_MOTION_DDOT":0},{"OBJECT_NAME":"STARLINK-31224","OBJECT_ID":"2024-038G","EPOCH":"2025-12-02T22:30:50.754816","MEAN_MOTION":15.27570664,"ECCENTRICITY":0.00011098,"INCLINATION":43.0009,"RA_OF_ASC_NODE":213.2127,"ARG_OF_PERICENTER":257.419,"MEAN_ANOMALY":102.6538,"EPHEMERIS_TYPE":0,"CLASSIFICATION_TYPE":"U","NORAD_CAT_ID":59029,"ELEMENT_SET_NO":999,"REV_AT_EPOCH":9996,"BSTAR":0.00014671938,"MEAN_MOTION_DOT":3.776e-5,"MEAN_MOTION_DDOT":0},{"OBJECT_NAME":"STARLINK-31186","OBJECT_ID":"2024-038H","EPOCH":"2025-12-03T00:51:15.511680","MEAN_MOTION":15.2757948,"ECCENTRICITY":0.00011501,"INCLINATION":43.0007,"RA_OF_ASC_NODE":213.0879,"ARG_OF_PERICENTER":270.5655,"MEAN_ANOMALY":89.5064,"EPHEMERIS_TYPE":0,"CLASSIFICATION_TYPE":"U","NORAD_CAT_ID":59030,"ELEMENT_SET_NO":999,"REV_AT_EPOCH":9997,"BSTAR":-1.6608326e-5,"MEAN_MOTION_DOT":-7.19e-6,"MEAN_MOTION_DDOT":0},{"OBJECT_NAME":"STARLINK-31211","OBJECT_ID":"2024-038J","EPOCH":"2025-12-03T01:31:45.099552","MEAN_MOTION":15.27583152,"ECCENTRICITY":0.0001318,"INCLINATION":43.0006,"RA_OF_ASC_NODE":212.4361,"ARG_OF_PERICENTER":260.1241,"MEAN_ANOMALY":99.9462,"EPHEMERIS_TYPE":0,"CLASSIFICATION_TYPE":"U","NORAD_CAT_ID":59031,"ELEMENT_SET_NO":999,"REV_AT_EPOCH":9987,"BSTAR":2.01889e-5,"MEAN_MOTION_DOT":2.94e-6,"MEAN_MOTION_DDOT":0},{"OBJECT_NAME":"STARLINK-30862","OBJECT_ID":"2024-038K","EPOCH":"2025-12-03T01:06:05.029920","MEAN_MOTION":15.27591555,"ECCENTRICITY":0.00019809,"INCLINATION":42.9999,"RA_OF_ASC_NODE":201.964,"ARG_OF_PERICENTER":262.4305,"MEAN_ANOMALY":97.6321,"EPHEMERIS_TYPE":0,"CLASSIFICATION_TYPE":"U","NORAD_CAT_ID":59032,"ELEMENT_SET_NO":999,"REV_AT_EPOCH":9999,"BSTAR":0.0001919699,"MEAN_MOTION_DOT":5.026e-5,"MEAN_MOTION_DDOT":0},{"OBJECT_NAME":"STARLINK-31210","OBJECT_ID":"2024-038L","EPOCH":"2025-12-03T00:35:18.492576","MEAN_MOTION":15.27578783,"ECCENTRICITY":8.385e-5,"INCLINATION":43.0001,"RA_OF_ASC_NODE":209.5593,"ARG_OF_PERICENTER":279.6675,"MEAN_ANOMALY":80.4082,"EPHEMERIS_TYPE":0,"CLASSIFICATION_TYPE":"U","NORAD_CAT_ID":59033,"ELEMENT_SET_NO":999,"REV_AT_EPOCH":10007,"BSTAR":1.4151504e-5,"MEAN_MOTION_DOT":1.28e-6,"MEAN_MOTION_DDOT":0},{"OBJECT_NAME":"STARLINK-31231","OBJECT_ID":"2024-038M","EPOCH":"2025-12-03T02:03:54.680256","MEAN_MOTION":15.2758096,"ECCENTRICITY":0.0001095,"INCLINATION":43.0005,"RA_OF_ASC_NODE":209.1603,"ARG_OF_PERICENTER":276.2602,"MEAN_ANOMALY":83.8125,"EPHEMERIS_TYPE":0,"CLASSIFICATION_TYPE":"U","NORAD_CAT_ID":59034,"ELEMENT_SET_NO":999,"REV_AT_EPOCH":9991,"BSTAR":0.00018895424,"MEAN_MOTION_DOT":4.941e-5,"MEAN_MOTION_DDOT":0},{"OBJECT_NAME":"STARLINK-31207","OBJECT_ID":"2024-038N","EPOCH":"2025-12-03T08:14:59.168832","MEAN_MOTION":15.27579912,"ECCENTRICITY":0.00012853,"INCLINATION":42.9995,"RA_OF_ASC_NODE":207.6529,"ARG_OF_PERICENTER":272.6882,"MEAN_ANOMALY":87.3822,"EPHEMERIS_TYPE":0,"CLASSIFICATION_TYPE":"U","NORAD_CAT_ID":59035,"ELEMENT_SET_NO":999,"REV_AT_EPOCH":10012,"BSTAR":0.00016332895,"MEAN_MOTION_DOT":4.235e-5,"MEAN_MOTION_DDOT":0},{"OBJECT_NAME":"STARLINK-31217","OBJECT_ID":"2024-038P","EPOCH":"2025-12-02T09:58:43.348800","MEAN_MOTION":15.27589884,"ECCENTRICITY":0.00014332,"INCLINATION":43.0018,"RA_OF_ASC_NODE":118.5704,"ARG_OF_PERICENTER":271.8172,"MEAN_ANOMALY":88.2516,"EPHEMERIS_TYPE":0,"CLASSIFICATION_TYPE":"U","NORAD_CAT_ID":59036,"ELEMENT_SET_NO":999,"REV_AT_EPOCH":10106,"BSTAR":4.3189797e-5,"MEAN_MOTION_DOT":9.27e-6,"MEAN_MOTION_DDOT":0},{"OBJECT_NAME":"STARLINK-31208","OBJECT_ID":"2024-038Q","EPOCH":"2025-12-03T01:13:52.688064","MEAN_MOTION":15.25898823,"ECCENTRICITY":5.675e-5,"INCLINATION":42.9986,"RA_OF_ASC_NODE":213.1784,"ARG_OF_PERICENTER":294.2291,"MEAN_ANOMALY":65.85,"EPHEMERIS_TYPE":0,"CLASSIFICATION_TYPE":"U","NORAD_CAT_ID":59037,"ELEMENT_SET_NO":999,"REV_AT_EPOCH":10003,"BSTAR":8.5375516e-5,"MEAN_MOTION_DOT":1.976e-5,"MEAN_MOTION_DDOT":0},{"OBJECT_NAME":"STARLINK-31235","OBJECT_ID":"2024-038R","EPOCH":"2025-12-03T08:11:16.449504","MEAN_MOTION":15.27589157,"ECCENTRICITY":0.00013015,"INCLINATION":42.9998,"RA_OF_ASC_NODE":207.6318,"ARG_OF_PERICENTER":274.3295,"MEAN_ANOMALY":85.7408,"EPHEMERIS_TYPE":0,"CLASSIFICATION_TYPE":"U","NORAD_CAT_ID":59038,"ELEMENT_SET_NO":999,"REV_AT_EPOCH":10006,"BSTAR":-1.1232756e-5,"MEAN_MOTION_DOT":-5.71e-6,"MEAN_MOTION_DDOT":0},{"OBJECT_NAME":"STARLINK-31220","OBJECT_ID":"2024-038S","EPOCH":"2025-12-03T08:14:17.263104","MEAN_MOTION":15.27579212,"ECCENTRICITY":7.768e-5,"INCLINATION":42.999,"RA_OF_ASC_NODE":211.09,"ARG_OF_PERICENTER":285.9331,"MEAN_ANOMALY":74.1435,"EPHEMERIS_TYPE":0,"CLASSIFICATION_TYPE":"U","NORAD_CAT_ID":59039,"ELEMENT_SET_NO":999,"REV_AT_EPOCH":10002,"BSTAR":2.659932e-6,"MEAN_MOTION_DOT":-1.89e-6,"MEAN_MOTION_DDOT":0},{"OBJECT_NAME":"STARLINK-31225","OBJECT_ID":"2024-038T","EPOCH":"2025-12-03T00:00:08.456832","MEAN_MOTION":15.27574341,"ECCENTRICITY":0.00012942,"INCLINATION":43.0006,"RA_OF_ASC_NODE":209.3313,"ARG_OF_PERICENTER":267.6284,"MEAN_ANOMALY":92.4419,"EPHEMERIS_TYPE":0,"CLASSIFICATION_TYPE":"U","NORAD_CAT_ID":59040,"ELEMENT_SET_NO":999,"REV_AT_EPOCH":9990,"BSTAR":0.00020830184,"MEAN_MOTION_DOT":5.473e-5,"MEAN_MOTION_DDOT":0},{"OBJECT_NAME":"STARLINK-31240","OBJECT_ID":"2024-038U","EPOCH":"2025-12-03T00:55:39.241632","MEAN_MOTION":15.27582127,"ECCENTRICITY":0.00013556,"INCLINATION":43.0031,"RA_OF_ASC_NODE":209.666,"ARG_OF_PERICENTER":262.5273,"MEAN_ANOMALY":97.5425,"EPHEMERIS_TYPE":0,"CLASSIFICATION_TYPE":"U","NORAD_CAT_ID":59041,"ELEMENT_SET_NO":999,"REV_AT_EPOCH":10001,"BSTAR":6.065684e-5,"MEAN_MOTION_DOT":1.407e-5,"MEAN_MOTION_DDOT":0},{"OBJECT_NAME":"STARLINK-31202","OBJECT_ID":"2024-038V","EPOCH":"2025-12-03T01:00:59.473728","MEAN_MOTION":15.2757751,"ECCENTRICITY":0.00028554,"INCLINATION":43.0077,"RA_OF_ASC_NODE":208.8402,"ARG_OF_PERICENTER":274.6397,"MEAN_ANOMALY":85.4128,"EPHEMERIS_TYPE":0,"CLASSIFICATION_TYPE":"U","NORAD_CAT_ID":59042,"ELEMENT_SET_NO":999,"REV_AT_EPOCH":10008,"BSTAR":5.9583024e-5,"MEAN_MOTION_DOT":1.377e-5,"MEAN_MOTION_DDOT":0}]
